H1 CPF  2 ESA 2024 11 20 10 325 01 galileo102
H2  1106002 7102    37847 2024 11 19 23 59 42 2024 11 24 23 59 42   900 1 1  0 0 0  1
H9
10 0 60637  64782.000000  0      -3465154.337      15947617.700      24699413.963
10 0 60637  65682.000000  0      -5537129.028      15092087.063      24859770.061
10 0 60637  66582.000000  0      -7666415.585      14389827.352      24711117.202
10 0 60637  67482.000000  0      -9814834.477      13851591.213      24255323.794
10 0 60637  68382.000000  0     -11943061.869      13481699.365      23498071.602
10 0 60637  69282.000000  0     -14011801.197      13277932.549      22448784.612
10 0 60637  70182.000000  0     -15982955.062      13231630.627      21120511.781
10 0 60637  71082.000000  0     -17820760.970      13327995.661      19529765.126
10 0 60637  71982.000000  0     -19492855.602      13546589.408      17696315.087
10 0 60637  72882.000000  0     -20971234.485      13862009.649      15642945.646
10 0 60637  73782.000000  0     -22233077.179      14244724.149      13395172.158
10 0 60637  74682.000000  0     -23261412.291      14662036.143      10980925.301
10 0 60637  75582.000000  0     -24045601.563      15079151.121       8430205.007
10 0 60637  76482.000000  0     -24581627.972      15460311.472       5774708.577
10 0 60637  77382.000000  0     -24872178.821      15769963.440       3047437.577
10 0 60637  78282.000000  0     -24926521.273      15973919.789        282288.334
10 0 60637  79182.000000  0     -24760174.209      16040481.683      -2486368.866
10 0 60637  80082.000000  0     -24394386.715      15941484.554      -5224116.662
10 0 60637  80982.000000  0     -23855439.542      15653235.079      -7896918.266
10 0 60637  81882.000000  0     -23173791.431      15157309.805     -10471540.511
10 0 60637  82782.000000  0     -22383097.084      14441190.257     -12915967.047
10 0 60637  83682.000000  0     -21519127.568      13498714.508     -15199796.500
10 0 60637  84582.000000  0     -20618627.013      12330330.923     -17294620.634
10 0 60637  85482.000000  0     -19718141.440      10943145.982     -19174377.816
10 0 60637  86382.000000  0     -18852856.470       9350764.530     -20815677.376
10 0 60638    882.000000  0     -18055480.319       7572927.309     -22198090.857
10 0 60638   1782.000000  0     -17355207.130       5634956.958     -23304406.526
10 0 60638   2682.000000  0     -16776793.123       3567029.642     -24120844.025
10 0 60638   3582.000000  0     -16339774.545       1403294.965     -24637226.478
10 0 60638   4482.000000  0     -16057851.950       -819128.481     -24847107.924
10 0 60638   5382.000000  0     -15938460.140      -3061250.658     -24747854.490
10 0 60638   6282.000000  0     -15982537.306      -5283366.513     -24340678.242
10 0 60638   7182.000000  0     -16184500.648      -7446235.268     -23630623.267
10 0 60638   8082.000000  0     -16532429.307      -9512245.780     -22626504.087
10 0 60638   8982.000000  0     -17008448.960     -11446531.585     -21340797.099
10 0 60638   9882.000000  0     -17589306.051     -13218000.817     -19789486.305
10 0 60638  10782.000000  0     -18247113.734     -14800248.788     -17991865.182
10 0 60638  11682.000000  0     -18950246.132     -16172324.702     -15970297.063
10 0 60638  12582.000000  0     -19664352.877     -17319328.498     -13749936.982
10 0 60638  13482.000000  0     -20353462.058     -18232819.145     -11358418.380
10 0 60638  14382.000000  0     -20981136.912     -18911021.623      -8825508.589
10 0 60638  15282.000000  0     -21511649.844     -19358826.138      -6182737.390
10 0 60638  16182.000000  0     -21911136.836     -19587579.665      -3463003.341
10 0 60638  17082.000000  0     -22148695.838     -19614676.460       -700162.848
10 0 60638  17982.000000  0     -22197394.559     -19462960.508       2071392.794
10 0 60638  18882.000000  0     -22035155.878     -19159958.809       4817166.998
10 0 60638  19782.000000  0     -21645492.973     -18736969.742       7502988.653
10 0 60638  20682.000000  0     -21018071.027     -18228035.296      10095438.562
10 0 60638  21582.000000  0     -20149077.828     -17668829.603      12562266.166
10 0 60638  22482.000000  0     -19041391.628     -17095498.821      14872791.250
10 0 60638  23382.000000  0     -17704540.993     -16543488.904      16998285.624
10 0 60638  24282.000000  0     -16154457.960     -16046398.137      18912329.988
10 0 60638  25182.000000  0     -14413032.256     -15634890.487      20591141.594
10 0 60638  26082.000000  0     -12507480.598     -15335703.862      22013868.680
10 0 60638  26982.000000  0     -10469550.842     -15170784.334      23162848.118
10 0 60638  27882.000000  0      -8334585.906     -15156573.416      24023823.197
10 0 60638  28782.000000  0      -6140476.700     -15303470.630      24586118.951
10 0 60638  29682.000000  0      -3926536.762     -15615488.104      24842773.006
10 0 60638  30582.000000  0      -1732333.670     -16090107.939      24790620.438
10 0 60638  31482.000000  0        403486.390     -16718346.718      24430331.696
10 0 60638  32382.000000  0       2444344.325     -17485025.100      23766403.199
10 0 60638  33282.000000  0       4356808.502     -18369234.018      22807100.783
10 0 60638  34182.000000  0       6111576.217     -19344982.918      21564356.711
10 0 60638  35082.000000  0       7684325.784     -20382009.768      20053621.503
10 0 60638  35982.000000  0       9056412.808     -21446727.550      18293672.400
10 0 60638  36882.000000  0      10215389.026     -22503277.692      16306380.752
10 0 60638  37782.000000  0      11155327.643     -23514657.517      14116441.153
10 0 60638  38682.000000  0      11876945.097     -24443886.505      11751065.591
10 0 60638  39582.000000  0      12387515.532     -25255174.895       9239646.330
10 0 60638  40482.000000  0      12700580.721     -25915058.071       6613391.632
10 0 60638  41382.000000  0      12835464.589     -26393461.200       3904938.785
10 0 60638  42282.000000  0      12816607.564     -26664660.776       1147949.206
10 0 60638  43182.000000  0      12672741.662     -26708112.881      -1623309.377
10 0 60638  44082.000000  0      12435932.197     -26509122.169      -4374388.468
10 0 60638  44982.000000  0      12140516.182     -26059330.528      -7071086.783
10 0 60638  45882.000000  0      11821970.774     -25357010.006      -9679875.308
10 0 60638  46782.000000  0      11515747.271     -24407150.751     -12168314.142
10 0 60638  47682.000000  0      11256107.311     -23221341.080     -14505455.900
10 0 60638  48582.000000  0      11074997.806     -21817443.361     -16662230.659
10 0 60638  49482.000000  0      11000999.992     -20219075.738     -18611807.625
10 0 60638  50382.000000  0      11058385.592     -18454915.833     -20329929.044
10 0 60638  51282.000000  0      11266309.804     -16557848.131     -21795212.198
10 0 60638  52182.000000  0      11638166.469     -14563981.622     -22989415.751
10 0 60638  53082.000000  0      12181125.766     -12511568.350     -23897667.144
10 0 60638  53982.000000  0      12895869.017     -10439856.601     -24508648.231
10 0 60638  54882.000000  0      13776529.048      -8387914.509     -24814736.848
10 0 60638  55782.000000  0      14810838.118      -6393460.786     -24812102.555
10 0 60638  56682.000000  0      15980478.910      -4491739.075     -24500755.331
10 0 60638  57582.000000  0      17261627.757      -2714471.040     -23884546.579
10 0 60638  58482.000000  0      18625673.219      -1088920.905     -22971122.382
10 0 60638  59382.000000  0      20040087.633        362899.353     -21771829.500
10 0 60638  60282.000000  0      21469424.431       1624859.324     -20301575.221
10 0 60638  61182.000000  0      22876410.084       2687154.329     -18578642.705
10 0 60638  62082.000000  0      24223096.475       3546550.554     -16624464.063
10 0 60638  62982.000000  0      25472037.616       4206423.512     -14463353.909
10 0 60638  63882.000000  0      26587453.784       4676588.680     -12122206.673
10 0 60638  64782.000000  0      27536346.539       4972929.691      -9630161.419
10 0 60638  65682.000000  0      28289529.580       5116835.828      -7018238.356
10 0 60638  66582.000000  0      28822543.009       5134466.591      -4318951.607
10 0 60638  67482.000000  0      29116422.254       5055866.549      -1565903.135
10 0 60638  68382.000000  0      29158297.453       4913958.447       1206637.016
10 0 60638  69282.000000  0      28941804.425       4743446.333       3964158.828
10 0 60638  70182.000000  0      28467294.340       4579663.358       6672343.303
10 0 60638  71082.000000  0      27741835.502       4457400.594       9297490.857
10 0 60638  71982.000000  0      26779007.243       4409753.822      11806941.667
10 0 60638  72882.000000  0      25598492.462       4467024.633      14169482.654
10 0 60638  73782.000000  0      24225481.685       4655710.451      16355735.963
10 0 60638  74682.000000  0      22689907.411       4997615.256      18338524.110
10 0 60638  75582.000000  0      21025532.851       5509108.926      20093207.232
10 0 60638  76482.000000  0      19268923.660       6200558.468      21597988.337
10 0 60638  77382.000000  0      17458334.926       7075948.917      22834182.804
10 0 60638  78282.000000  0      15632548.241       8132705.782      23786448.930
10 0 60638  79182.000000  0      13829695.224       9361724.554      24442976.761
10 0 60638  80082.000000  0      12086104.202      10747606.327      24795633.010
10 0 60638  80982.000000  0      10435206.004      12269092.164      24840060.391
10 0 60638  81882.000000  0       8906532.910      13899682.616      24575730.247
10 0 60638  82782.000000  0       7524841.888      15608423.084      24005947.913
10 0 60638  83682.000000  0       6309389.322      17360830.522      23137810.816
10 0 60638  84582.000000  0       5273379.721      19119932.616      21982119.851
10 0 60638  85482.000000  0       4423605.466      20847387.067      20553245.145
99